[{"OBJECT_NAME":"SAOCOM 1A","OBJECT_ID":"2018-076A","EPOCH":"2026-03-12T19:09:47.192832","MEAN_MOTION":14.82143277,"ECCENTRICITY":0.0001414,"INCLINATION":97.8899,"RA_OF_ASC_NODE":259.9268,"ARG_OF_PERICENTER":86.4245,"MEAN_ANOMALY":273.713,"EPHEMERIS_TYPE":0,"CLASSIFICATION_TYPE":"U","NORAD_CAT_ID":43641,"ELEMENT_SET_NO":999,"REV_AT_EPOCH":40182,"BSTAR":2.4718e-5,"MEAN_MOTION_DOT":1.44e-6,"MEAN_MOTION_DDOT":0},{"OBJECT_NAME":"H-2A R/B","OBJECT_ID":"2018-084L","EPOCH":"2026-03-12T14:08:21.714144","MEAN_MOTION":15.41481901,"ECCENTRICITY":0.002525,"INCLINATION":98.8732,"RA_OF_ASC_NODE":289.5971,"ARG_OF_PERICENTER":15.4084,"MEAN_ANOMALY":344.7921,"EPHEMERIS_TYPE":0,"CLASSIFICATION_TYPE":"U","NORAD_CAT_ID":43682,"ELEMENT_SET_NO":999,"REV_AT_EPOCH":40622,"BSTAR":0.00050679,"MEAN_MOTION_DOT":0.00021397,"MEAN_MOTION_DDOT":0},{"OBJECT_NAME":"SAOCOM 1B","OBJECT_ID":"2020-059A","EPOCH":"2026-03-12T21:31:59.636064","MEAN_MOTION":14.82153875,"ECCENTRICITY":0.0001418,"INCLINATION":97.8899,"RA_OF_ASC_NODE":259.1219,"ARG_OF_PERICENTER":86.5422,"MEAN_ANOMALY":273.5953,"EPHEMERIS_TYPE":0,"CLASSIFICATION_TYPE":"U","NORAD_CAT_ID":46265,"ELEMENT_SET_NO":999,"REV_AT_EPOCH":29922,"BSTAR":0.0001371,"MEAN_MOTION_DOT":1.039e-5,"MEAN_MOTION_DDOT":0},{"OBJECT_NAME":"CSS (TIANHE)","OBJECT_ID":"2021-035A","EPOCH":"2026-03-12T15:49:01.500960","MEAN_MOTION":15.60827652,"ECCENTRICITY":0.0006713,"INCLINATION":41.4661,"RA_OF_ASC_NODE":190.0925,"ARG_OF_PERICENTER":290.2953,"MEAN_ANOMALY":69.7164,"EPHEMERIS_TYPE":0,"CLASSIFICATION_TYPE":"U","NORAD_CAT_ID":48274,"ELEMENT_SET_NO":999,"REV_AT_EPOCH":27807,"BSTAR":0.00031305,"MEAN_MOTION_DOT":0.00026654,"MEAN_MOTION_DDOT":0},{"OBJECT_NAME":"COSMOS 2550","OBJECT_ID":"2021-056A","EPOCH":"2026-03-12T09:16:30.213120","MEAN_MOTION":15.33837293,"ECCENTRICITY":0.0008377,"INCLINATION":67.1461,"RA_OF_ASC_NODE":32.7743,"ARG_OF_PERICENTER":269.6455,"MEAN_ANOMALY":90.374,"EPHEMERIS_TYPE":0,"CLASSIFICATION_TYPE":"U","NORAD_CAT_ID":48865,"ELEMENT_SET_NO":999,"REV_AT_EPOCH":26387,"BSTAR":6.0433e-8,"MEAN_MOTION_DOT":-1.9e-6,"MEAN_MOTION_DDOT":0},{"OBJECT_NAME":"CZ-2C R/B","OBJECT_ID":"2022-058K","EPOCH":"2026-03-12T20:31:34.947840","MEAN_MOTION":15.54474633,"ECCENTRICITY":0.0042121,"INCLINATION":50.1891,"RA_OF_ASC_NODE":302.0034,"ARG_OF_PERICENTER":214.235,"MEAN_ANOMALY":145.5903,"EPHEMERIS_TYPE":0,"CLASSIFICATION_TYPE":"U","NORAD_CAT_ID":52794,"ELEMENT_SET_NO":999,"REV_AT_EPOCH":21062,"BSTAR":0.00051258,"MEAN_MOTION_DOT":0.00035429,"MEAN_MOTION_DDOT":0},{"OBJECT_NAME":"CZ-2C R/B","OBJECT_ID":"2022-132E","EPOCH":"2026-03-12T13:47:48.493248","MEAN_MOTION":15.62131197,"ECCENTRICITY":0.0020438,"INCLINATION":97.2966,"RA_OF_ASC_NODE":74.9796,"ARG_OF_PERICENTER":81.9771,"MEAN_ANOMALY":278.3806,"EPHEMERIS_TYPE":0,"CLASSIFICATION_TYPE":"U","NORAD_CAT_ID":54039,"ELEMENT_SET_NO":999,"REV_AT_EPOCH":19082,"BSTAR":0.00051672,"MEAN_MOTION_DOT":0.00045817,"MEAN_MOTION_DDOT":0},{"OBJECT_NAME":"GSLV R/B","OBJECT_ID":"2022-138AN","EPOCH":"2026-03-12T17:30:11.771424","MEAN_MOTION":14.967998,"ECCENTRICITY":0.0023383,"INCLINATION":87.3879,"RA_OF_ASC_NODE":165.3456,"ARG_OF_PERICENTER":136.3077,"MEAN_ANOMALY":224.0011,"EPHEMERIS_TYPE":0,"CLASSIFICATION_TYPE":"U","NORAD_CAT_ID":54149,"ELEMENT_SET_NO":999,"REV_AT_EPOCH":18438,"BSTAR":0.00037509,"MEAN_MOTION_DOT":4.343e-5,"MEAN_MOTION_DDOT":0},{"OBJECT_NAME":"XRISM","OBJECT_ID":"2023-137A","EPOCH":"2026-03-12T19:26:55.430592","MEAN_MOTION":15.11538051,"ECCENTRICITY":0.0007902,"INCLINATION":31.0011,"RA_OF_ASC_NODE":263.4786,"ARG_OF_PERICENTER":70.179,"MEAN_ANOMALY":289.97,"EPHEMERIS_TYPE":0,"CLASSIFICATION_TYPE":"U","NORAD_CAT_ID":57800,"ELEMENT_SET_NO":999,"REV_AT_EPOCH":13826,"BSTAR":0.00032222,"MEAN_MOTION_DOT":5.698e-5,"MEAN_MOTION_DDOT":0},{"OBJECT_NAME":"ACS3","OBJECT_ID":"2024-077B","EPOCH":"2026-03-12T17:42:42.371424","MEAN_MOTION":13.89757749,"ECCENTRICITY":0.0062272,"INCLINATION":97.2052,"RA_OF_ASC_NODE":12.1643,"ARG_OF_PERICENTER":69.1866,"MEAN_ANOMALY":291.5953,"EPHEMERIS_TYPE":0,"CLASSIFICATION_TYPE":"U","NORAD_CAT_ID":59588,"ELEMENT_SET_NO":999,"REV_AT_EPOCH":9462,"BSTAR":0.018956,"MEAN_MOTION_DOT":0.00023675,"MEAN_MOTION_DDOT":0},{"OBJECT_NAME":"SZ-21 MODULE","OBJECT_ID":"2025-246C","EPOCH":"2026-03-12T16:24:29.899296","MEAN_MOTION":15.68803443,"ECCENTRICITY":0.0001119,"INCLINATION":41.473,"RA_OF_ASC_NODE":184.9262,"ARG_OF_PERICENTER":307.7188,"MEAN_ANOMALY":52.3552,"EPHEMERIS_TYPE":0,"CLASSIFICATION_TYPE":"U","NORAD_CAT_ID":66515,"ELEMENT_SET_NO":999,"REV_AT_EPOCH":1854,"BSTAR":0.00034395,"MEAN_MOTION_DOT":0.00040419,"MEAN_MOTION_DDOT":0}]
